OBJECT_NAME,OBJECT_ID,EPOCH,MEAN_MOTION,ECCENTRICITY,INCLINATION,RA_OF_ASC_NODE,ARG_OF_PERICENTER,MEAN_ANOMALY,EPHEMERIS_TYPE,CLASSIFICATION_TYPE,NORAD_CAT_ID,ELEMENT_SET_NO,REV_AT_EPOCH,BSTAR,MEAN_MOTION_DOT,MEAN_MOTION_DDOT
CUBEBUG-2 (LO-74),2013-066AA,2026-06-29T07:42:34.325568,14.93858905,.00571,97.8907,129.3513,348.8931,11.1023,0,U,39440,999,67880,.40121E-3,.4338E-4,0
FUNCUBE-1 (AO-73),2013-066AE,2026-06-28T22:07:29.307072,15.09627566,.00368849,97.8277,151.6136,160.9318,199.3301,0,U,39444,999,68143,.39162951E-3,.6331E-4,0
UWE-3,2013-066AG,2026-06-28T20:17:33.724608,14.97114508,.00468892,97.8711,135.9993,281.4584,78.1373,0,U,39446,999,67932,.258706E-3,.2989E-4,0
UNISAT-6,2014-033C,2026-06-29T08:52:23.871072,14.88303536,.0045501,97.7887,332.8678,30.0269,330.3542,0,U,40012,999,64797,.29498E-3,.2723E-4,0
DUCHIFAT-1,2014-033M,2026-06-28T23:20:46.849344,15.67092926,.00006459,98.0456,240.8096,103.8669,256.2662,0,U,40021,999,65759,.10874878E-2,.117244E-2,0
QB50P1,2014-033R,2026-06-29T12:57:14.858784,15.18442582,.0009128,98.0957,192.5529,172.2235,187.9140,0,U,40025,999,65490,.34967E-3,.7132E-4,0
LILACSAT-2,2015-049K,2026-06-29T12:36:39.604896,15.51845446,.0006751,97.4629,217.8379,192.0574,168.0518,0,U,40908,999,59766,.28126E-3,.16754E-3,0
FOX-1A (AO-85),2015-058D,2026-06-29T11:49:44.457888,14.91019093,.0131209,64.7743,240.7404,51.8035,309.4807,0,U,40967,999,11540,.18004E-3,.1924E-4,0
CAS-2T & KS-1Q,2016-066G,2026-06-29T03:40:37.954848,14.44732334,.0342862,98.3820,255.7526,93.2988,270.7482,0,U,41847,999,50652,.23513E-3,.1632E-4,0
RADFXSAT (FOX-1B),2017-073E,2026-06-28T14:02:06.239616,15.12867010,.01485354,97.4690,46.5670,289.4918,69.0319,0,U,43017,999,46711,.29239469E-3,.6671E-4,0
DIWATA-2B,2018-084H,2026-06-29T12:09:56.913408,15.00504862,.0013068,98.1200,17.2527,131.9291,228.3048,0,U,43678,999,41806,.17351E-3,.2124E-4,0
ES'HAIL 2,2018-090A,2026-06-29T07:24:08.861760,1.00270954,.0002229,0.0280,28.9028,103.4866,281.8248,0,U,43700,999,2779,0,0,0
FOX-1CLIFF (AO-95),2018-099N,2026-06-28T14:41:44.354688,15.26945463,.00070548,97.4385,239.8174,311.8599,48.2037,0,U,43770,999,41496,.38163646E-3,.10033E-3,0
ITASAT,2018-099AE,2026-06-28T16:20:02.671008,15.19194925,.00110557,97.4026,230.9633,317.1813,42.8560,0,U,43786,999,41465,.30212886E-3,.63E-4,0
JY1SAT (JO-97),2018-099AX,2026-06-28T15:26:00.465216,15.34009895,.0005256,97.4130,242.5189,213.1026,146.9889,0,U,43803,999,41538,.48154504E-3,.15787E-3,0
UWE-4,2018-111E,2026-06-29T07:33:36.402624,15.46866057,.0004281,97.5854,109.2707,275.7537,84.3224,0,U,43880,999,41265,.5622E-3,.28228E-3,0
TIANYAN 01,2019-093C,2026-06-29T11:56:24.538272,14.86540256,.0014811,97.7535,252.4293,50.6558,309.5968,0,U,44881,999,35324,.15013E-3,.1278E-4,0
RS-44 & BREEZE-KM R/B,2019-096E,2026-06-29T12:20:24.320832,12.79749009,.021852,82.5229,331.5128,115.4686,246.9198,0,U,44909,999,30392,-.41581E-4,.3E-7,0
SALSAT,2020-068K,2026-06-28T23:37:04.859328,15.29961615,.00078707,97.8845,183.7681,257.4321,102.6038,0,U,46495,999,31716,.23731316E-3,.6804E-4,0
XW-3 (CAS-9),2021-131B,2026-06-29T11:32:03.993792,14.41367883,.0005296,98.4990,272.8037,68.7205,291.4549,0,U,50466,999,23688,.1234E-3,.355E-5,0
GREENCUBE (IO-117),2022-080E,2026-06-28T16:50:00.384576,6.42583249,.00089876,70.1440,294.2410,287.1341,72.8335,0,U,53109,999,9280,0,-.3E-7,0
UMKA 1 (RS40S),2023-091G,2026-06-29T12:41:32.609760,15.20956934,.0014191,97.5047,239.1789,79.5284,280.7550,0,U,57172,999,16588,.2643E-3,.5798E-4,0
CUBESX-HSE 3 (RS42S),2023-091N,2026-06-29T12:34:14.646432,15.31519311,.0011276,97.5092,246.2684,55.8921,304.3388,0,U,57178,999,16631,.4101E-3,.12433E-3,0
MONITOR-3 (RS58S),2023-091Q,2026-06-29T12:14:43.279296,15.28085042,.0012523,97.5082,244.0477,62.3384,297.9124,0,U,57180,999,16617,.37317E-3,.1017E-3,0
MONITOR-4 (RS57S),2023-091S,2026-06-29T11:43:34.722048,15.28168993,.0012531,97.5077,243.9979,62.6071,297.6441,0,U,57182,999,16617,.36022E-3,.9839E-4,0
MONITOR-2 (RS39S),2023-091U,2026-06-29T11:59:44.058336,15.19022326,.0012605,97.5070,238.7032,73.7465,286.5155,0,U,57184,999,16582,.24393E-3,.5049E-4,0
SVYATOBOR 1 (RS60S),2023-091X,2026-06-29T12:17:50.612640,15.26819344,.0010272,97.5089,244.3984,56.9326,303.2898,0,U,57187,999,16619,.32897E-3,.861E-4,0
VIZARD-METEO (RS38S),2023-091Z,2026-06-29T12:34:11.811648,15.36409727,.0007254,97.5093,250.2583,38.6374,321.5387,0,U,57189,999,16658,.42951E-3,.15195E-3,0
POLYTECH-UNIVERSE 3 (RS46S),2023-091AB,2026-06-29T12:36:31.739040,15.19228991,.0017022,97.5045,238.2330,87.8591,272.4592,0,U,57191,999,16582,.24251E-3,.5058E-4,0
UTMN 2 (RS27S),2023-091AP,2026-06-29T11:15:53.154144,15.32344368,.0008396,97.5088,247.8621,45.9471,314.2461,0,U,57203,999,16642,.39956E-3,.12418E-3,0
